{"type": "FeatureCollection", "features": [ {"type": "Feature", "properties": {"norad_id": 30071, "name": "FENGYUN 1C DEB", "group": "fengyun-1c-debris", "lat": -21.074520669824803, "lon": -96.3741980766049, "alt_km": 725.808795949205, "timestamp": "2025-12-13T16:48:32.983938+00:00", "meta": {"OBJECT_NAME": "FENGYUN 1C DEB", "OBJECT_ID": "1999-025PY", "EPOCH": "2025-12-12T23:37:35.418144", "MEAN_MOTION": 14.52153106, "ECCENTRICITY": 0.0039339, "INCLINATION": 98.6581, "RA_OF_ASC_NODE": 86.2541, "ARG_OF_PERICENTER": 109.0488, "MEAN_ANOMALY": 311.0869, "EPHEMERIS_TYPE": 0, "CLASSIFICATION_TYPE": "U", "NORAD_CAT_ID": 30071, "ELEMENT_SET_NO": 999, "REV_AT_EPOCH": 98230, "BSTAR": 0.0036807738, "MEAN_MOTION_DOT": 0.00015051, "MEAN_MOTION_DDOT": 0}, "tle": {"line1": "1 30071U 99025PY  25346.98443771  .00015051  00000+0  36808-2 0  9997", "line2": "2 30071  98.6581  86.2541 0039339 109.0488 311.0869 14.52153106982301"}}, "geometry": {"type": "Point", "coordinates": [-96.3741980766049, -21.074520669824803]}}, {"type": "Feature", "properties": {"norad_id": 30072, "name": "FENGYUN 1C DEB", "group": "fengyun-1c-debris", "lat": 64.75043601725199, "lon": -24.166530708608107, "alt_km": 798.2193718611888, "timestamp": "2025-12-13T16:48:32.983950+00:00", "meta": {"OBJECT_NAME": "FENGYUN 1C DEB", "OBJECT_ID": "1999-025PZ", "EPOCH": "2025-12-12T08:32:41.453376", "MEAN_MOTION": 14.37771067, "ECCENTRICITY": 0.00595826, "INCLINATION": 99.0763, "RA_OF_ASC_NODE": 134.6021, "ARG_OF_PERICENTER": 273.5536, "MEAN_ANOMALY": 85.8835, "EPHEMERIS_TYPE": 0, "CLASSIFICATION_TYPE": "U", "NORAD_CAT_ID": 30072, "ELEMENT_SET_NO": 999, "REV_AT_EPOCH": 97165, "BSTAR": 0.0048594982, "MEAN_MOTION_DOT": 0.00014917, "MEAN_MOTION_DDOT": 0}, "tle": {"line1": "1 30072U 99025PZ  25346.35603534  .00014917  00000+0  48595-2 0  9990", "line2": "2 30072  99.0763 134.6021 0059582 273.5536  85.8835 14.37771067971653"}}, "geometry": {"type": "Point", "coordinates": [-24.166530708608107, 64.75043601725199]}}, {"type": "Feature", "properties": {"norad_id": 30073, "name": "FENGYUN 1C DEB", "group": "fengyun-1c-debris", "lat": -41.54940457718505, "lon": -30.658450319372445, "alt_km": 806.5289803471542, "timestamp": "2025-12-13T16:48:32.983961+00:00", "meta": {"OBJECT_NAME": "FENGYUN 1C DEB", "OBJECT_ID": "1999-025QA", "EPOCH": "2025-12-11T21:08:18.278304", "MEAN_MOTION": 14.18658294, "ECCENTRICITY": 0.0053638, "INCLINATION": 99.4119, "RA_OF_ASC_NODE": 318.9587, "ARG_OF_PERICENTER": 283.214, "MEAN_ANOMALY": 106.2154, "EPHEMERIS_TYPE": 0, "CLASSIFICATION_TYPE": "U", "NORAD_CAT_ID": 30073, "ELEMENT_SET_NO": 999, "REV_AT_EPOCH": 96913, "BSTAR": 0.0024584, "MEAN_MOTION_DOT": 5.124e-05, "MEAN_MOTION_DDOT": 0}, "tle": {"line1": "1 30073U 99025QA  25345.88076711  .00005124  00000+0  24584-2 0  9991", "line2": "2 30073  99.4119 318.9587 0053638 283.2140 106.2154 14.18658294969139"}}, "geometry": {"type": "Point", "coordinates": [-30.658450319372445, -41.54940457718505]}}, {"type": "Feature", "properties": {"norad_id": 30074, "name": "FENGYUN 1C DEB", "group": "fengyun-1c-debris", "lat": 50.244522652100265, "lon": 42.8099319447203, "alt_km": 854.0916805675315, "timestamp": "2025-12-13T16:48:32.983971+00:00", "meta": {"OBJECT_NAME": "FENGYUN 1C DEB", "OBJECT_ID": "1999-025QB", "EPOCH": "2025-12-12T15:04:15.192768", "MEAN_MOTION": 14.12854536, "ECCENTRICITY": 0.00973643, "INCLINATION": 99.1296, "RA_OF_ASC_NODE": 52.8629, "ARG_OF_PERICENTER": 152.2511, "MEAN_ANOMALY": 208.3903, "EPHEMERIS_TYPE": 0, "CLASSIFICATION_TYPE": "U", "NORAD_CAT_ID": 30074, "ELEMENT_SET_NO": 999, "REV_AT_EPOCH": 96660, "BSTAR": 0.002331931, "MEAN_MOTION_DOT": 4.493e-05, "MEAN_MOTION_DDOT": 0}, "tle": {"line1": "1 30074U 99025QB  25346.62795362  .00004493  00000+0  23319-2 0  9998", "line2": "2 30074  99.1296  52.8629 0097364 152.2511 208.3903 14.12854536966601"}}, "geometry": {"type": "Point", "coordinates": [42.8099319447203, 50.244522652100265]}}, {"type": "Feature", "properties": {"norad_id": 30075, "name": "FENGYUN 1C DEB", "group": "fengyun-1c-debris", "lat": 72.91615012231617, "lon": 5.55954740805717, "alt_km": 922.280026462884, "timestamp": "2025-12-13T16:48:32.983981+00:00", "meta": {"OBJECT_NAME": "FENGYUN 1C DEB", "OBJECT_ID": "1999-025QC", "EPOCH": "2025-12-12T22:19:28.210368", "MEAN_MOTION": 13.92533374, "ECCENTRICITY": 0.00910707, "INCLINATION": 99.3619, "RA_OF_ASC_NODE": 37.2459, "ARG_OF_PERICENTER": 176.5386, "MEAN_ANOMALY": 1.1705, "EPHEMERIS_TYPE": 0, "CLASSIFICATION_TYPE": "U", "NORAD_CAT_ID": 30075, "ELEMENT_SET_NO": 999, "REV_AT_EPOCH": 96067, "BSTAR": 7.6228603e-05, "MEAN_MOTION_DOT": 5.6e-07, "MEAN_MOTION_DDOT": 0}, "tle": {"line1": "1 30075U 99025QC  25346.93018762  .00000056  00000+0  76229-4 0  9996", "line2": "2 30075  99.3619  37.2459 0091070 176.5386   1.1705 13.92533374960679"}}, "geometry": {"type": "Point", "coordinates": [5.55954740805717, 72.91615012231617]}}, {"type": "Feature", "properties": {"norad_id": 30076, "name": "FENGYUN 1C DEB", "group": "fengyun-1c-debris", "lat": 73.16236348829251, "lon": -58.133558716874425, "alt_km": 845.2549784865541, "timestamp": "2025-12-13T16:48:32.983991+00:00", "meta": {"OBJECT_NAME": "FENGYUN 1C DEB", "OBJECT_ID": "1999-025QD", "EPOCH": "2025-12-12T13:04:55.627392", "MEAN_MOTION": 13.76290557, "ECCENTRICITY": 0.01757133, "INCLINATION": 99.2381, "RA_OF_ASC_NODE": 333.2769, "ARG_OF_PERICENTER": 94.385, "MEAN_ANOMALY": 21.0087, "EPHEMERIS_TYPE": 0, "CLASSIFICATION_TYPE": "U", "NORAD_CAT_ID": 30076, "ELEMENT_SET_NO": 999, "REV_AT_EPOCH": 94891, "BSTAR": 0.00041742749, "MEAN_MOTION_DOT": 4.14e-06, "MEAN_MOTION_DDOT": 0}, "tle": {"line1": "1 30076U 99025QD  25346.54508828  .00000414  00000+0  41743-3 0  9991", "line2": "2 30076  99.2381 333.2769 0175713  94.3850  21.0087 13.76290557948910"}}, "geometry": {"type": "Point", "coordinates": [-58.133558716874425, 73.16236348829251]}}, {"type": "Feature", "properties": {"norad_id": 30077, "name": "FENGYUN 1C DEB", "group": "fengyun-1c-debris", "lat": 71.36593048284278, "lon": -149.46898996237692, "alt_km": 875.8553992301522, "timestamp": "2025-12-13T16:48:32.984002+00:00", "meta": {"OBJECT_NAME": "FENGYUN 1C DEB", "OBJECT_ID": "1999-025QE", "EPOCH": "2025-12-12T23:30:41.505120", "MEAN_MOTION": 14.07079726, "ECCENTRICITY": 0.00204081, "INCLINATION": 98.7582, "RA_OF_ASC_NODE": 2.6281, "ARG_OF_PERICENTER": 263.4165, "MEAN_ANOMALY": 154.3191, "EPHEMERIS_TYPE": 0, "CLASSIFICATION_TYPE": "U", "NORAD_CAT_ID": 30077, "ELEMENT_SET_NO": 999, "REV_AT_EPOCH": 97116, "BSTAR": 0.00012734792, "MEAN_MOTION_DOT": 1.7e-06, "MEAN_MOTION_DDOT": 0}, "tle": {"line1": "1 30077U 99025QE  25346.97964705  .00000170  00000+0  12735-3 0  9997", "line2": "2 30077  98.7582   2.6281 0020408 263.4165 154.3191 14.07079726971169"}}, "geometry": {"type": "Point", "coordinates": [-149.46898996237692, 71.36593048284278]}}, {"type": "Feature", "properties": {"norad_id": 30078, "name": "FENGYUN 1C DEB", "group": "fengyun-1c-debris", "lat": 51.086564565230255, "lon": 51.46603853034223, "alt_km": 836.3860614754749, "timestamp": "2025-12-13T16:48:32.984012+00:00", "meta": {"OBJECT_NAME": "FENGYUN 1C DEB", "OBJECT_ID": "1999-025QF", "EPOCH": "2025-12-12T19:13:36.408576", "MEAN_MOTION": 14.23135701, "ECCENTRICITY": 0.00527172, "INCLINATION": 98.832, "RA_OF_ASC_NODE": 61.6684, "ARG_OF_PERICENTER": 280.2679, "MEAN_ANOMALY": 206.6955, "EPHEMERIS_TYPE": 0, "CLASSIFICATION_TYPE": "U", "NORAD_CAT_ID": 30078, "ELEMENT_SET_NO": 999, "REV_AT_EPOCH": 97114, "BSTAR": 0.0019452747, "MEAN_MOTION_DOT": 4.412e-05, "MEAN_MOTION_DDOT": 0}, "tle": {"line1": "1 30078U 99025QF  25346.80111584  .00004412  00000+0  19453-2 0  9995", "line2": "2 30078  98.8320  61.6684 0052717 280.2679 206.6955 14.23135701971149"}}, "geometry": {"type": "Point", "coordinates": [51.46603853034223, 51.086564565230255]}}, {"type": "Feature", "properties": {"norad_id": 30079, "name": "FENGYUN 1C DEB", "group": "fengyun-1c-debris", "lat": 69.46446628558556, "lon": 18.090616465794294, "alt_km": 927.6292828497972, "timestamp": "2025-12-13T16:48:32.984022+00:00", "meta": {"OBJECT_NAME": "FENGYUN 1C DEB", "OBJECT_ID": "1999-025QG", "EPOCH": "2025-12-12T17:05:02.907744", "MEAN_MOTION": 14.0079433, "ECCENTRICITY": 0.00846128, "INCLINATION": 99.0354, "RA_OF_ASC_NODE": 42.2496, "ARG_OF_PERICENTER": 299.0786, "MEAN_ANOMALY": 189.4013, "EPHEMERIS_TYPE": 0, "CLASSIFICATION_TYPE": "U", "NORAD_CAT_ID": 30079, "ELEMENT_SET_NO": 999, "REV_AT_EPOCH": 96537, "BSTAR": 0.0002832248, "MEAN_MOTION_DOT": 3.91e-06, "MEAN_MOTION_DDOT": 0}, "tle": {"line1": "1 30079U 99025QG  25346.71183921  .00000391  00000+0  28322-3 0  9998", "line2": "2 30079  99.0354  42.2496 0084612 299.0786 189.4013 14.00794330965377"}}, "geometry": {"type": "Point", "coordinates": [18.090616465794294, 69.46446628558556]}}, {"type": "Feature", "properties": {"norad_id": 30080, "name": "FENGYUN 1C DEB", "group": "fengyun-1c-debris", "lat": 7.700340098465833, "lon": 149.37717889038626, "alt_km": 897.0543003518105, "timestamp": "2025-12-13T16:48:32.984032+00:00", "meta": {"OBJECT_NAME": "FENGYUN 1C DEB", "OBJECT_ID": "1999-025QH", "EPOCH": "2025-12-12T21:34:09.401952", "MEAN_MOTION": 14.10821609, "ECCENTRICITY": 0.01338289, "INCLINATION": 98.6984, "RA_OF_ASC_NODE": 327.4148, "ARG_OF_PERICENTER": 60.145, "MEAN_ANOMALY": 1.2134, "EPHEMERIS_TYPE": 0, "CLASSIFICATION_TYPE": "U", "NORAD_CAT_ID": 30080, "ELEMENT_SET_NO": 999, "REV_AT_EPOCH": 97240, "BSTAR": 0.00046437039, "MEAN_MOTION_DOT": 8.63e-06, "MEAN_MOTION_DDOT": 0}, "tle": {"line1": "1 30080U 99025QH  25346.89871993  .00000863  00000+0  46437-3 0  9993", "line2": "2 30080  98.6984 327.4148 0133828  60.1450   1.2134 14.10821609972402"}}, "geometry": {"type": "Point", "coordinates": [149.37717889038626, 7.700340098465833]}}]}